OBJECT_NAME,OBJECT_ID,EPOCH,MEAN_MOTION,ECCENTRICITY,INCLINATION,RA_OF_ASC_NODE,ARG_OF_PERICENTER,MEAN_ANOMALY,EPHEMERIS_TYPE,CLASSIFICATION_TYPE,NORAD_CAT_ID,ELEMENT_SET_NO,REV_AT_EPOCH,BSTAR,MEAN_MOTION_DOT,MEAN_MOTION_DDOT
SKYSAT-C4,2016-058B,2026-06-17T00:13:01.691040,15.48581946,.0001367,96.9166,189.7887,133.2052,226.9314,0,U,41771,999,54544,.26781E-3,.14202E-3,0
SKYSAT-C5,2016-058C,2026-06-17T02:29:39.410304,15.34468979,.0001082,97.0466,208.7481,316.1442,43.9716,0,U,41772,999,54373,.18073E-3,.5959E-4,0
SKYSAT-C2,2016-058D,2026-06-17T01:33:09.983232,15.42069325,.0004679,97.0162,190.1642,71.1807,288.9948,0,U,41773,999,54503,.24548E-3,.10412E-3,0
SKYSAT-C3,2016-058E,2026-06-17T01:53:38.287104,15.52534621,.0001501,96.8998,198.9295,94.9033,265.2393,0,U,41774,999,54609,.30236E-3,.18467E-3,0
ALSAT-1B,2016-059C,2026-06-17T04:07:59.628288,14.72273983,.0008086,97.7742,176.9364,220.1567,139.9044,0,U,41785,999,52057,.15821E-4,.53E-6,0
PATHFINDER 1,2016-059E,2026-06-17T00:00:15.223680,14.67663034,.0027781,97.8166,167.2849,204.1801,155.8103,0,U,41787,999,51968,.88797E-4,.461E-5,0
SCATSAT 1,2016-059H,2026-06-17T01:52:19.626816,14.79525223,.0053376,98.1191,231.8430,247.8504,111.7037,0,U,41790,999,10157,.12222E-3,.878E-5,0
GOKTURK 1A,2016-073A,2026-06-17T04:15:21.631680,14.62775673,.0001457,98.1257,62.8527,76.7911,283.3454,0,U,41875,999,50882,.12787E-3,.605E-5,0
RESOURCESAT-2A,2016-074A,2026-06-17T03:23:17.983968,14.21615255,.0003352,98.7531,241.6456,84.1990,275.9570,0,U,41877,999,49429,-.80165E-4,-.22E-5,0
CARTOSAT-2D,2017-008A,2026-06-17T03:48:07.798176,15.19208193,.0003938,97.4105,227.4651,233.5558,126.5314,0,U,41948,999,51757,.2821E-3,.5872E-4,0
SENTINEL-2B,2017-013A,2026-06-17T04:58:47.301888,14.30816350,.0001177,98.5696,242.9814,89.0409,271.0909,0,U,42063,999,48464,-.26946E-4,-.114E-5,0
CARTOSAT-2E,2017-036C,2026-06-17T04:13:50.583360,15.19254923,.0002507,97.4271,227.9787,318.3706,41.7338,0,U,42767,999,49814,.17774E-3,.3679E-4,0
FORMOSAT-5,2017-049A,2026-06-17T02:55:29.246592,14.50898845,.0012681,98.2254,243.4330,84.5511,275.7130,0,U,42920,999,46666,.42357E-4,.124E-5,0
SENTINEL-5P,2017-064A,2026-06-17T03:09:12.521088,14.19518924,.0000962,98.7925,110.2631,85.3336,274.7950,0,U,42969,999,44955,.34118E-4,.28E-6,0
SKYSAT-C11,2017-068A,2026-06-16T22:17:30.650208,15.57882549,.0000646,97.4356,316.7476,89.2660,270.8669,0,U,42987,999,48320,.31671E-3,.23544E-3,0
SKYSAT-C10,2017-068B,2026-06-16T21:37:37.524000,15.34634381,.000111,97.4511,304.7449,96.3111,263.8258,0,U,42988,999,48231,.22215E-3,.7374E-4,0
SKYSAT-C9,2017-068C,2026-06-16T21:56:44.361312,15.41555946,.0009394,97.4430,305.6905,133.8098,226.3927,0,U,42989,999,48271,.27037E-3,.11288E-3,0
SKYSAT-C8,2017-068D,2026-06-17T03:12:00.499104,15.36975735,.0001478,97.4529,304.7790,95.8180,264.3233,0,U,42990,999,48230,.25826E-3,.9258E-4,0
SKYSAT-C7,2017-068E,2026-06-17T03:02:48.996672,15.36926015,.0007206,97.4538,305.7619,106.7958,253.4077,0,U,42991,999,48236,.25952E-3,.9296E-4,0
SKYSAT-C6,2017-068F,2026-06-16T21:15:39.638880,15.34206495,.000442,97.4572,305.4883,138.2545,221.9035,0,U,42992,999,48227,.23662E-3,.7756E-4,0
CARTOSAT-2F,2018-004A,2026-06-17T03:25:19.904736,15.19214452,.0000644,97.4787,227.7771,204.0744,156.0460,0,U,43111,999,46732,.1317E-3,.2704E-4,0
GAOFEN-1 02,2018-031A,2026-06-17T03:54:39.139200,14.76456799,.0003826,98.0529,230.6901,34.2731,325.8725,0,U,43259,999,44269,.84751E-4,.538E-5,0
GAOFEN-1 03,2018-031B,2026-06-17T05:00:46.607328,14.76469156,.0003736,98.0517,230.5944,79.0934,281.0695,0,U,43260,999,44269,.91652E-4,.586E-5,0
GAOFEN-1 04,2018-031D,2026-06-16T04:01:54.374880,14.76478078,.00022392,98.0533,229.7469,82.9600,277.1864,0,U,43262,999,44253,.76072167E-4,.478E-5,0
SENTINEL-3B,2018-039A,2026-06-17T01:11:12.315840,14.26734699,.0000725,98.6249,235.5837,88.7172,271.4091,0,U,43437,999,42410,.54716E-4,.89E-6,0
GAOFEN-5 01,2018-043A,2026-06-17T04:46:11.002080,14.60605552,.000304,98.4569,139.7852,83.4979,276.6566,0,U,43461,999,43169,.65944E-4,.271E-5,0
GAOFEN-6,2018-048A,2026-06-17T04:57:36.910944,14.76604753,.0012079,97.9163,230.9586,166.7095,193.4436,0,U,43484,999,43339,.12051E-3,.792E-5,0
GAOFEN-11 01,2018-063A,2026-06-17T04:09:37.349280,15.55286322,.0003121,97.1294,235.0520,358.1125,2.0118,0,U,43585,999,44034,.17242E-3,.11586E-3,0
ICESAT-2,2018-070A,2026-06-17T03:43:16.782240,15.28281542,.0006022,92.0084,290.9700,106.8053,253.3857,0,U,43613,999,43245,.28098E-3,.7742E-4,0
HYSIS,2018-096A,2026-06-16T09:35:06.552096,14.78693317,.0001924,97.9845,234.1538,106.8178,253.3244,0,U,43719,999,40730,.79264296E-4,.529E-5,0
KAZSTSAT,2018-099AB,2026-06-17T00:44:20.052096,14.99865808,.0008501,97.4268,199.9661,70.2179,289.9961,0,U,43783,999,41128,.11661E-3,.139E-4,0
