SKYSAT-C4               
1 41771U 16058B   26168.00904735  .00014202  00000+0  26781-3 0  9996
2 41771  96.9166 189.7887 0001367 133.2052 226.9314 15.48581946545440
SKYSAT-C5               
1 41772U 16058C   26168.10392836  .00005959  00000+0  18073-3 0  9995
2 41772  97.0466 208.7481 0001082 316.1442  43.9716 15.34468979543735
SKYSAT-C2               
1 41773U 16058D   26168.06469888  .00010412  00000+0  24548-3 0  9997
2 41773  97.0162 190.1642 0004679  71.1807 288.9948 15.42069325545034
SKYSAT-C3               
1 41774U 16058E   26168.07891536  .00018467  00000+0  30236-3 0  9997
2 41774  96.8998 198.9295 0001501  94.9033 265.2393 15.52534621546090
ALSAT-1B                
1 41785U 16059C   26168.17221792  .00000053  00000+0  15821-4 0  9998
2 41785  97.7742 176.9364 0008086 220.1567 139.9044 14.72273983520579
PATHFINDER 1            
1 41787U 16059E   26168.00017620  .00000461  00000+0  88797-4 0  9990
2 41787  97.8166 167.2849 0027781 204.1801 155.8103 14.67663034519686
SCATSAT 1               
1 41790U 16059H   26168.07800494  .00000878  00000+0  12222-3 0  9991
2 41790  98.1191 231.8430 0053376 247.8504 111.7037 14.79525223101571
GOKTURK 1A              
1 41875U 16073A   26168.17733370  .00000605  00000+0  12787-3 0  9994
2 41875  98.1257  62.8527 0001457  76.7911 283.3454 14.62775673508827
RESOURCESAT-2A          
1 41877U 16074A   26168.14118037 -.00000220  00000+0 -80165-4 0  9992
2 41877  98.7531 241.6456 0003352  84.1990 275.9570 14.21615255494299
CARTOSAT-2D             
1 41948U 17008A   26168.15842359  .00005872  00000+0  28210-3 0  9999
2 41948  97.4105 227.4651 0003938 233.5558 126.5314 15.19208193517571
SENTINEL-2B             
1 42063U 17013A   26168.20749192 -.00000114  00000+0 -26946-4 0  9992
2 42063  98.5696 242.9814 0001177  89.0409 271.0909 14.30816350484641
CARTOSAT-2E             
1 42767U 17036C   26168.17627990  .00003679  00000+0  17774-3 0  9990
2 42767  97.4271 227.9787 0002507 318.3706  41.7338 15.19254923498145
FORMOSAT-5              
1 42920U 17049A   26168.12186628  .00000124  00000+0  42357-4 0  9996
2 42920  98.2254 243.4330 0012681  84.5511 275.7130 14.50898845466665
SENTINEL-5P             
1 42969U 17064A   26168.13139492  .00000028  00000+0  34118-4 0  9993
2 42969  98.7925 110.2631 0000962  85.3336 274.7950 14.19518924449556
SKYSAT-C11              
1 42987U 17068A   26167.92882697  .00023544  00000+0  31671-3 0  9993
2 42987  97.4356 316.7476 0000646  89.2660 270.8669 15.57882549483206
SKYSAT-C10              
1 42988U 17068B   26167.90112875  .00007374  00000+0  22215-3 0  9993
2 42988  97.4511 304.7449 0001110  96.3111 263.8258 15.34634381482315
SKYSAT-C9               
1 42989U 17068C   26167.91440233  .00011288  00000+0  27037-3 0  9993
2 42989  97.4430 305.6905 0009394 133.8098 226.3927 15.41555946482714
SKYSAT-C8               
1 42990U 17068D   26168.13333911  .00009258  00000+0  25826-3 0  9992
2 42990  97.4529 304.7790 0001478  95.8180 264.3233 15.36975735482304
SKYSAT-C7               
1 42991U 17068E   26168.12695598  .00009296  00000+0  25952-3 0  9996
2 42991  97.4538 305.7619 0007206 106.7958 253.4077 15.36926015482364
SKYSAT-C6               
1 42992U 17068F   26167.88587545  .00007756  00000+0  23662-3 0  9996
2 42992  97.4572 305.4883 0004420 138.2545 221.9035 15.34206495482275
CARTOSAT-2F             
1 43111U 18004A   26168.14259149  .00002704  00000+0  13170-3 0  9998
2 43111  97.4787 227.7771 0000644 204.0744 156.0460 15.19214452467320
GAOFEN-1 02             
1 43259U 18031A   26168.16295300  .00000538  00000+0  84751-4 0  9999
2 43259  98.0529 230.6901 0003826  34.2731 325.8725 14.76456799442693
GAOFEN-1 03             
1 43260U 18031B   26168.20887277  .00000586  00000+0  91652-4 0  9997
2 43260  98.0517 230.5944 0003736  79.0934 281.0695 14.76469156442690
GAOFEN-1 04             
1 43262U 18031D   26167.16799045  .00000478  00000+0  76072-4 0  9997
2 43262  98.0533 229.7469 0002239  82.9600 277.1864 14.76478078442532
SENTINEL-3B             
1 43437U 18039A   26168.04944810  .00000089  00000+0  54716-4 0  9998
2 43437  98.6249 235.5837 0000725  88.7172 271.4091 14.26734699424107
GAOFEN-5 01             
1 43461U 18043A   26168.19873845  .00000271  00000+0  65944-4 0  9993
2 43461  98.4569 139.7852 0003040  83.4979 276.6566 14.60605552431698
GAOFEN-6                
1 43484U 18048A   26168.20667721  .00000792  00000+0  12051-3 0  9997
2 43484  97.9163 230.9586 0012079 166.7095 193.4436 14.76604753433391
GAOFEN-11 01            
1 43585U 18063A   26168.17334895  .00011586  00000+0  17242-3 0  9995
2 43585  97.1294 235.0520 0003121 358.1125   2.0118 15.55286322440344
ICESAT-2                
1 43613U 18070A   26168.15505535  .00007742  00000+0  28098-3 0  9994
2 43613  92.0084 290.9700 0006022 106.8053 253.3857 15.28281542432451
HYSIS                   
1 43719U 18096A   26167.39938139  .00000529  00000+0  79264-4 0  9992
2 43719  97.9845 234.1538 0001924 106.8178 253.3244 14.78693317407307
KAZSTSAT                
1 43783U 18099AB  26168.03078764  .00001390  00000+0  11661-3 0  9990
2 43783  97.4268 199.9661 0008501  70.2179 289.9961 14.99865808411282
